STARLINK-31184          
1 58793U 24012G   25351.46614804 -.00000441  00000+0 -65249-5 0  9991
2 58793  43.0010 269.3731 0000931 270.8813  89.1932 15.27573418108661
STARLINK-31192          
1 58794U 24012H   25351.50855110 -.00000183  00000+0  28672-5 0  9995
2 58794  43.0020 269.6877 0001218 273.7004  86.3709 15.27579136108664
STARLINK-31161          
1 58795U 24012J   25351.46871343 -.00000217  00000+0  16348-5 0  9992
2 58795  43.0019 269.3906 0001039 279.8931  80.1804 15.27580613108660
STARLINK-31195          
1 58796U 24012K   25351.18931538 -.00007387  00000+0 -25885-3 0  9995
2 58796  43.0024 271.5936 0001394 275.4814  84.5879 15.27621863108619
STARLINK-31193          
1 58797U 24012L   25351.15078149  .00000374  00000+0  23091-4 0  9998
2 58797  43.0004 271.3034 0000688 303.5365  56.5420 15.27575920108617
STARLINK-31168          
1 58798U 24012M   25351.15462840 -.00000137  00000+0  45339-5 0  9992
2 58798  43.0042 271.3322 0000948 277.0229  83.0515 15.27585596108613
STARLINK-31191          
1 58800U 24012P   25351.46228445  .00000557  00000+0  29740-4 0  9993
2 58800  42.9998 269.3411 0001166 265.7526  94.3192 15.27588087108667
STARLINK-31170          
1 58801U 24012Q   25351.48798394 -.00002197  00000+0 -70310-4 0  9994
2 58801  43.0042 269.5366 0001382 299.5305  60.5409 15.27591290108667
STARLINK-31141          
1 58803U 24012S   25351.75981325 -.00012074  00000+0 -43013-3 0  9998
2 58803  43.0002 268.1361 0001012 282.2887  77.7851 15.27565997108700
STARLINK-31188          
1 58804U 24012T   25351.16491452  .00003370  00000+0  13189-3 0  9999
2 58804  42.9956 271.4122 0000398 235.0135 125.0679 15.27587793108610
STARLINK-31138          
1 58806U 24012V   25351.75595955 -.00000651  00000+0 -14137-4 0  9995
2 58806  43.0000 268.1039 0000392 319.2697  40.8125 15.27588182108709
STARLINK-31163          
1 58807U 24012W   25351.12764525  .00001485  00000+0  63454-4 0  9998
2 58807  43.0009 271.1314 0001110 272.8134  87.2591 15.27586532108617
STARLINK-31174          
1 58808U 24012X   25351.19174904  .00000898  00000+0  42123-4 0  9999
2 58808  43.0010 270.7533 0001117 291.9934  68.0799 15.27588911108626
STARLINK-31169          
1 58809U 24012Y   25351.16362534  .00002264  00000+0  91731-4 0  9993
2 58809  43.0009 271.3986 0000437 278.1373  81.9429 15.27586666108610
STARLINK-31233          
1 58826U 24017A   25351.89383779 -.00001089  00000+0 -24630-4 0  9991
2 58826  53.1597 224.2084 0001441  75.6600 284.4561 15.30193895107650
STARLINK-31271          
1 58827U 24017B   25351.92022392  .01097234  00000+0  33575-1 0  9998
2 58827  53.1581 224.3701 0001595  82.6363 277.4819 15.30441569107534
STARLINK-31222          
1 58828U 24017C   25351.86744536 -.00001873  00000+0 -51144-4 0  9993
2 58828  53.1585 224.0371 0001129  92.0398 268.0732 15.30198268107530
STARLINK-31258          
1 58829U 24017D   25351.90016193 -.00003256  00000+0 -97885-4 0  9999
2 58829  53.1597 224.2388 0001306 113.1574 246.9564 15.30192665107535
STARLINK-31253          
1 58830U 24017E   25351.88116563 -.00004427  00000+0 -13745-3 0  9993
2 58830  53.1597 224.1208 0001103  91.7440 268.3687 15.30197241107534
STARLINK-31232          
1 58831U 24017F   25351.87693393 -.00008613  00000+0 -27909-3 0  9992
2 58831  53.1577 224.0964 0001467  69.6714 290.4445 15.30189661107537
STARLINK-31263          
1 58832U 24017G   25351.92125785 -.00001769  00000+0 -47634-4 0  9997
2 58832  53.1598 213.7199 0001506  90.3152 269.8022 15.30192674107794
STARLINK-31171          
1 58834U 24017J   25351.86058509 -.00000827  00000+0 -15791-4 0  9994
2 58834  53.1594 200.8559 0001465  82.4344 277.6823 15.30196974107858
STARLINK-31246          
1 58835U 24017K   25351.36814282 -.00001657  00000+0 -43816-4 0  9999
2 58835  53.1583 226.6069 0001678  84.5415 275.5778 15.30204144107458
STARLINK-31251          
1 58836U 24017L   25351.89805986 -.00001166  00000+0 -27274-4 0  9994
2 58836  53.1604 224.2254 0001445  89.9864 270.1302 15.30180494107648
STARLINK-31249          
1 58838U 24017N   25351.64314006 -.00001009  00000+0 -21965-4 0  9994
2 58838  53.1595 225.4799 0001137  90.6486 269.4645 15.30193024107490
STARLINK-31250          
1 58839U 24017P   25351.87175993 -.00002357  00000+0 -67492-4 0  9992
2 58839  53.1588 214.1218 0001498  93.8525 266.2647 15.30193744107624
STARLINK-31248          
1 58840U 24017Q   25351.88066913 -.00003563  00000+0 -10821-3 0  9999
2 58840  53.1602 236.8813 0001210  85.6062 274.5077 15.30202357107464
STARLINK-31236          
1 58841U 24017R   25351.91073592  .00011394  00000+0  39685-3 0  9993
2 58841  53.1590 224.3048 0000775 122.5865 237.5211 15.30146731107530
STARLINK-31228          
1 58842U 24017S   25351.90755550 -.00001365  00000+0 -33984-4 0  9990
2 58842  53.1595 224.2868 0001388  90.6245 269.4915 15.30193591107534
STARLINK-31280          
1 58843U 24017T   25351.65261828 -.00001184  00000+0 -27821-4 0  9995
2 58843  53.1583 225.5382 0001922  87.5917 272.5304 15.30206647107491
STARLINK-31269          
1 58844U 24017U   25351.87990146 -.00000988  00000+0 -21222-4 0  9992
2 58844  53.1608 314.4494 0002009  94.9678 265.1552 15.30196443106242
STARLINK-31264          
1 58845U 24017V   25351.89457533 -.00004457  00000+0 -13853-3 0  9998
2 58845  53.1627 313.8374 0001218  71.3337 288.7796 15.30178610106254
STARLINK-31273          
1 58846U 24017W   25351.91704572 -.00002368  00000+0 -67855-4 0  9991
2 58846  53.1591 224.3450 0001375  79.5268 280.5887 15.30195952107534
STARLINK-31262          
1 58847U 24017X   25351.31411658 -.00000963  00000+0 -20406-4 0  9996
2 58847  53.1622 316.6106 0001361  80.4244 279.6910 15.30193397106168
STARLINK-31238          
1 58853U 24019A   25351.29418392 -.00000925  00000+0 -24112-4 0  9990
2 58853  43.0022 354.0272 0000699 264.3982  95.6789 15.27590583106481
STARLINK-31158          
1 58854U 24019B   25351.70834743 -.00004548  00000+0 -15580-3 0  9992
2 58854  42.9982 351.9742 0001161 289.7485  70.3241 15.27593790106540
STARLINK-31237          
1 58855U 24019C   25351.28905073 -.00000875  00000+0 -22259-4 0  9992
2 58855  42.9994 354.0060 0001455 249.1682 110.9014 15.27587734106489
STARLINK-31244          
1 58856U 24019D   25351.69807312 -.00001512  00000+0 -45441-4 0  9992
2 58856  43.0018 351.9079 0000607 274.2185  85.8598 15.27579003106544
STARLINK-31226          
1 58858U 24019F   25351.05962395 -.00000296  00000+0 -12383-5 0  9995
2 58858  43.0004 355.7074 0000756 277.5730  82.5036 15.27586152106448
STARLINK-31197          
1 58859U 24019G   25351.72505148  .00002127  00000+0  86766-4 0  9997
2 58859  43.0031 352.1062 0001327 273.9380  86.1320 15.27587115106540
STARLINK-31213          
1 58860U 24019H   25351.69934650  .00000179  00000+0  16041-4 0  9993
2 58860  43.0017 351.9129 0001525 272.9430  87.1247 15.27588232106542
STARLINK-31199          
1 58861U 24019J   25351.69549993 -.00000573  00000+0 -11291-4 0  9998
2 58861  43.0007 351.8852 0001177 275.6329  84.4388 15.27581268106542
STARLINK-31200          
1 58862U 24019K   25351.30446193 -.00000548  00000+0 -10382-4 0  9997
2 58862  43.0011 354.1078 0000952 253.3794 106.6953 15.27589950106487
STARLINK-31149          
1 58863U 24019L   25351.27748624  .00005539  00000+0  21058-3 0  9992
2 58863  43.0038 353.9105 0001735 256.8499 103.2159 15.27593034106484
STARLINK-31242          
1 58864U 24019M   25351.31089107  .00001821  00000+0  75636-4 0  9994
2 58864  43.0039 354.1602 0000363 278.1580  81.9231 15.27587623106485
STARLINK-31223          
1 58865U 24019N   25351.70449013 -.00001243  00000+0 -35621-4 0  9994
2 58865  43.0021 351.9559 0001594 281.3463  78.7210 15.27590087106520
STARLINK-31219          
1 58866U 24019P   25351.28775939  .00004474  00000+0  17189-3 0  9992
2 58866  43.0011 353.9823 0001650 258.3667 101.7000 15.27604589106469
STARLINK-31198          
1 58867U 24019Q   25351.03520670 -.00001105  00000+0 -30614-4 0  9995
2 58867  43.0011 355.5077 0001203 253.7445 106.3274 15.27590579106429
STARLINK-31196          
1 58868U 24019R   25351.72890802  .00000314  00000+0  20947-4 0  9996
2 58868  43.0037 352.1317 0001133 272.0315  88.0406 15.27583053106523
STARLINK-31203          
1 58869U 24019S   25351.69212133 -.00009631  00000+0 -34104-3 0  9990
2 58869  43.0026 348.3720 0001164 263.7975  96.2744 15.27568021106580
STARLINK-31201          
1 58870U 24019T   25351.08390275  .00019780  00000+0  72831-3 0  9992
2 58870  43.0031 355.0345 0000640 287.6541  72.4241 15.27493540106433
STARLINK-31214          
1 58871U 24019U   25351.29289941  .00000069  00000+0  12014-4 0  9991
2 58871  42.9990 354.0026 0001409 273.0337  87.0354 15.27589005106469
STARLINK-31215          
1 58872U 24019V   25351.23008479  .00003062  00000+0  12074-3 0  9992
2 58872  43.0020 354.4099 0001146 268.7250  91.3470 15.27581973106455
STARLINK-31177          
1 58873U 24019W   25351.29032738 -.00000854  00000+0 -21506-4 0  9993
2 58873  42.9999 353.9946 0001643 267.1646  92.9018 15.27593038106481
STARLINK-30945          
1 58874U 24019X   25351.71605419 -.00000599  00000+0 -12254-4 0  9999
2 58874  43.0052 352.0223 0001052 279.2371  80.8362 15.27585577106549
STARLINK-31212          
1 58875U 24019Y   25351.34929276  .00000682  00000+0  34296-4 0  9990
2 58875  43.0020 353.5828 0001273 283.0580  77.0130 15.27591202106477
STARLINK-31306          
1 58876U 24020A   25351.38746366  .00000902  00000+0  42583-4 0  9997
2 58876  53.1615 344.4673 0001505  98.0113 262.1058 15.30193955106654
STARLINK-31326          
1 58877U 24020B   25351.31276629 -.00000567  00000+0 -70185-5 0  9990
2 58877  53.1623 345.4171 0001251  91.4942 268.6202 15.30189504105457
STARLINK-31300          
1 58878U 24020C   25351.71723912 -.00004100  00000+0 -12654-3 0  9999
2 58878  53.1623 342.9722 0001724  70.1610 289.9577 15.30154881105522
